FENGYUN 1C DEB          
1 35154U 99025DMJ 17344.51657000  .00000106  00000-0  69348-4 0  9997
2 35154  99.4021 249.3467 0188212 304.9915  53.3713 14.14551603520080
